CCSDS_OMM_VERS = 2.0
CREATION_DATE  = 
ORIGINATOR     = 

OBJECT_NAME    = ALOS (DAICHI)
OBJECT_ID      = 2006-002A
CENTER_NAME    = EARTH
REF_FRAME      = TEME
TIME_SYSTEM    = UTC
MEAN_ELEMENT_THEORY = SGP/SGP4

EPOCH          = 2026-03-03T20:27:37.334880
MEAN_MOTION    = 14.69787621
ECCENTRICITY   = .00011339
INCLINATION    = 98.1208
RA_OF_ASC_NODE = 18.8377
ARG_OF_PERICENTER = 51.0197
MEAN_ANOMALY   = 309.1109

EPHEMERIS_TYPE = 0
CLASSIFICATION_TYPE = U
NORAD_CAT_ID   = 28931
ELEMENT_SET_NO = 999
REV_AT_EPOCH   = 7262
BSTAR          = .33384641E-3
MEAN_MOTION_DOT = .1943E-4
MEAN_MOTION_DDOT = 0

CCSDS_OMM_VERS = 2.0
CREATION_DATE  = 
ORIGINATOR     = 

OBJECT_NAME    = H-2A R/B
OBJECT_ID      = 2006-002B
CENTER_NAME    = EARTH
REF_FRAME      = TEME
TIME_SYSTEM    = UTC
MEAN_ELEMENT_THEORY = SGP/SGP4

EPOCH          = 2026-03-03T09:44:51.284832
MEAN_MOTION    = 15.16255084
ECCENTRICITY   = .00519152
INCLINATION    = 98.2397
RA_OF_ASC_NODE = 208.8910
ARG_OF_PERICENTER = 262.6569
MEAN_ANOMALY   = 96.8760

EPHEMERIS_TYPE = 0
CLASSIFICATION_TYPE = U
NORAD_CAT_ID   = 28932
ELEMENT_SET_NO = 999
REV_AT_EPOCH   = 9348
BSTAR          = .59324383E-3
MEAN_MOTION_DOT = .11806E-3
MEAN_MOTION_DDOT = 0

CCSDS_OMM_VERS = 2.0
CREATION_DATE  = 
ORIGINATOR     = 

OBJECT_NAME    = RESURS-DK 1
OBJECT_ID      = 2006-021A
CENTER_NAME    = EARTH
REF_FRAME      = TEME
TIME_SYSTEM    = UTC
MEAN_ELEMENT_THEORY = SGP/SGP4

EPOCH          = 2026-03-03T21:57:22.602816
MEAN_MOTION    = 15.12697372
ECCENTRICITY   = .0002432
INCLINATION    = 69.9304
RA_OF_ASC_NODE = 251.9622
ARG_OF_PERICENTER = 165.6205
MEAN_ANOMALY   = 194.5031

EPHEMERIS_TYPE = 0
CLASSIFICATION_TYPE = U
NORAD_CAT_ID   = 29228
ELEMENT_SET_NO = 999
REV_AT_EPOCH   = 8665
BSTAR          = .2100572E-3
MEAN_MOTION_DOT = .3579E-4
MEAN_MOTION_DDOT = 0

CCSDS_OMM_VERS = 2.0
CREATION_DATE  = 
ORIGINATOR     = 

OBJECT_NAME    = CZ-4B R/B
OBJECT_ID      = 2006-046C
CENTER_NAME    = EARTH
REF_FRAME      = TEME
TIME_SYSTEM    = UTC
MEAN_ELEMENT_THEORY = SGP/SGP4

EPOCH          = 2026-03-03T22:27:54.061632
MEAN_MOTION    = 15.16833499
ECCENTRICITY   = .00317358
INCLINATION    = 97.5603
RA_OF_ASC_NODE = 107.8601
ARG_OF_PERICENTER = 288.2223
MEAN_ANOMALY   = 71.5557

EPHEMERIS_TYPE = 0
CLASSIFICATION_TYPE = U
NORAD_CAT_ID   = 29507
ELEMENT_SET_NO = 999
REV_AT_EPOCH   = 5917
BSTAR          = .36843086E-3
MEAN_MOTION_DOT = .727E-4
MEAN_MOTION_DDOT = 0

CCSDS_OMM_VERS = 2.0
CREATION_DATE  = 
ORIGINATOR     = 

OBJECT_NAME    = CZ-2C R/B
OBJECT_ID      = 2007-010B
CENTER_NAME    = EARTH
REF_FRAME      = TEME
TIME_SYSTEM    = UTC
MEAN_ELEMENT_THEORY = SGP/SGP4

EPOCH          = 2026-03-03T19:23:37.673952
MEAN_MOTION    = 14.20243790
ECCENTRICITY   = .00580528
INCLINATION    = 98.3977
RA_OF_ASC_NODE = 176.3819
ARG_OF_PERICENTER = 312.0258
MEAN_ANOMALY   = 47.5986

EPHEMERIS_TYPE = 0
CLASSIFICATION_TYPE = U
NORAD_CAT_ID   = 31114
ELEMENT_SET_NO = 999
REV_AT_EPOCH   = 97888
BSTAR          = .9533443E-4
MEAN_MOTION_DOT = .166E-5
MEAN_MOTION_DDOT = 0

CCSDS_OMM_VERS = 2.0
CREATION_DATE  = 
ORIGINATOR     = 

OBJECT_NAME    = COSMO-SKYMED 1
OBJECT_ID      = 2007-023A
CENTER_NAME    = EARTH
REF_FRAME      = TEME
TIME_SYSTEM    = UTC
MEAN_ELEMENT_THEORY = SGP/SGP4

EPOCH          = 2026-03-03T23:32:44.373696
MEAN_MOTION    = 14.96480826
ECCENTRICITY   = .0000811
INCLINATION    = 97.8861
RA_OF_ASC_NODE = 253.9680
ARG_OF_PERICENTER = 89.8180
MEAN_ANOMALY   = 270.3134

EPHEMERIS_TYPE = 0
CLASSIFICATION_TYPE = U
NORAD_CAT_ID   = 31598
ELEMENT_SET_NO = 999
REV_AT_EPOCH   = 1405
BSTAR          = .41786342E-3
MEAN_MOTION_DOT = .4686E-4
MEAN_MOTION_DDOT = 0

CCSDS_OMM_VERS = 2.0
CREATION_DATE  = 
ORIGINATOR     = 

OBJECT_NAME    = COSMOS 2428
OBJECT_ID      = 2007-029A
CENTER_NAME    = EARTH
REF_FRAME      = TEME
TIME_SYSTEM    = UTC
MEAN_ELEMENT_THEORY = SGP/SGP4

EPOCH          = 2026-03-03T19:12:27.707616
MEAN_MOTION    = 14.12944514
ECCENTRICITY   = .00087905
INCLINATION    = 70.9422
RA_OF_ASC_NODE = 215.7044
ARG_OF_PERICENTER = 283.2817
MEAN_ANOMALY   = 76.7324

EPHEMERIS_TYPE = 0
CLASSIFICATION_TYPE = U
NORAD_CAT_ID   = 31792
ELEMENT_SET_NO = 999
REV_AT_EPOCH   = 96326
BSTAR          = .62226929E-4
MEAN_MOTION_DOT = .68E-6
MEAN_MOTION_DDOT = 0

CCSDS_OMM_VERS = 2.0
CREATION_DATE  = 
ORIGINATOR     = 

OBJECT_NAME    = SL-16 R/B
OBJECT_ID      = 2007-029B
CENTER_NAME    = EARTH
REF_FRAME      = TEME
TIME_SYSTEM    = UTC
MEAN_ELEMENT_THEORY = SGP/SGP4

EPOCH          = 2026-03-03T18:36:26.192160
MEAN_MOTION    = 14.14833889
ECCENTRICITY   = .00024267
INCLINATION    = 70.9756
RA_OF_ASC_NODE = 184.8160
ARG_OF_PERICENTER = 278.0929
MEAN_ANOMALY   = 189.2811

EPHEMERIS_TYPE = 0
CLASSIFICATION_TYPE = U
NORAD_CAT_ID   = 31793
ELEMENT_SET_NO = 999
REV_AT_EPOCH   = 96453
BSTAR          = -.54637316E-4
MEAN_MOTION_DOT = -.153E-5
MEAN_MOTION_DDOT = 0

CCSDS_OMM_VERS = 2.0
CREATION_DATE  = 
ORIGINATOR     = 

OBJECT_NAME    = KORONAS-FOTON
OBJECT_ID      = 2009-003A
CENTER_NAME    = EARTH
REF_FRAME      = TEME
TIME_SYSTEM    = UTC
MEAN_ELEMENT_THEORY = SGP/SGP4

EPOCH          = 2026-03-03T22:17:14.001792
MEAN_MOTION    = 15.43162786
ECCENTRICITY   = .00108294
INCLINATION    = 82.4281
RA_OF_ASC_NODE = 281.8683
ARG_OF_PERICENTER = 169.2075
MEAN_ANOMALY   = 190.9407

EPHEMERIS_TYPE = 0
CLASSIFICATION_TYPE = U
NORAD_CAT_ID   = 33504
ELEMENT_SET_NO = 999
REV_AT_EPOCH   = 94485
BSTAR          = .40539914E-3
MEAN_MOTION_DOT = .18048E-3
MEAN_MOTION_DDOT = 0

CCSDS_OMM_VERS = 2.0
CREATION_DATE  = 
ORIGINATOR     = 

OBJECT_NAME    = CZ-2C R/B
OBJECT_ID      = 2011-030B
CENTER_NAME    = EARTH
REF_FRAME      = TEME
TIME_SYSTEM    = UTC
MEAN_ELEMENT_THEORY = SGP/SGP4

EPOCH          = 2026-03-03T19:14:42.592704
MEAN_MOTION    = 14.81194075
ECCENTRICITY   = .00529662
INCLINATION    = 97.8533
RA_OF_ASC_NODE = 20.1831
ARG_OF_PERICENTER = 11.2331
MEAN_ANOMALY   = 47.6410

EPHEMERIS_TYPE = 0
CLASSIFICATION_TYPE = U
NORAD_CAT_ID   = 37731
ELEMENT_SET_NO = 999
REV_AT_EPOCH   = 78922
BSTAR          = .31135661E-3
MEAN_MOTION_DOT = .2427E-4
MEAN_MOTION_DDOT = 0

CCSDS_OMM_VERS = 2.0
CREATION_DATE  = 
ORIGINATOR     = 

OBJECT_NAME    = H-2A R/B
OBJECT_ID      = 2012-025E
CENTER_NAME    = EARTH
REF_FRAME      = TEME
TIME_SYSTEM    = UTC
MEAN_ELEMENT_THEORY = SGP/SGP4

EPOCH          = 2026-03-03T20:08:34.856448
MEAN_MOTION    = 14.95104186
ECCENTRICITY   = .00438857
INCLINATION    = 98.4716
RA_OF_ASC_NODE = 29.4170
ARG_OF_PERICENTER = 333.6566
MEAN_ANOMALY   = 26.2421

EPHEMERIS_TYPE = 0
CLASSIFICATION_TYPE = U
NORAD_CAT_ID   = 38341
ELEMENT_SET_NO = 999
REV_AT_EPOCH   = 74734
BSTAR          = .50126201E-3
MEAN_MOTION_DOT = .5533E-4
MEAN_MOTION_DDOT = 0

CCSDS_OMM_VERS = 2.0
CREATION_DATE  = 
ORIGINATOR     = 

OBJECT_NAME    = SHIJIAN-16 (SJ-16)
OBJECT_ID      = 2013-057A
CENTER_NAME    = EARTH
REF_FRAME      = TEME
TIME_SYSTEM    = UTC
MEAN_ELEMENT_THEORY = SGP/SGP4

EPOCH          = 2026-03-03T22:20:09.385152
MEAN_MOTION    = 14.92309579
ECCENTRICITY   = .00156965
INCLINATION    = 74.9731
RA_OF_ASC_NODE = 195.9885
ARG_OF_PERICENTER = 127.7669
MEAN_ANOMALY   = 232.4944

EPHEMERIS_TYPE = 0
CLASSIFICATION_TYPE = U
NORAD_CAT_ID   = 39358
ELEMENT_SET_NO = 999
REV_AT_EPOCH   = 67064
BSTAR          = .12275392E-3
MEAN_MOTION_DOT = .1228E-4
MEAN_MOTION_DDOT = 0

